ORBCOMM FM20            
1 25416U 98046D   24323.85807286  .00001862  00000+0  67918-3 0  9993
2 25416  44.9935  96.7068 0001604 223.4056 136.6666 14.36299371374017
ORBCOMM FM16            
1 25417U 98046E   24323.94168380  .00002393  00000+0  83605-3 0  9990
2 25417  44.9932  90.3901 0004088 291.6080  68.4332 14.37655778373989
ORBCOMM FM15            
1 25418U 98046F   24323.86887529  .00002111  00000+0  74793-3 0  9991
2 25418  44.9965  95.2856 0003560 291.2009  68.8458 14.37337873373975
ORBCOMM FM14            
1 25419U 98046G   24323.79498398  .00002197  00000+0  77201-3 0  9997
2 25419  44.9952  94.4140 0002995 270.6700  89.3805 14.37614225373927
ORBCOMM FM13            
1 25420U 98046H   24323.88206450  .00001922  00000+0  69498-3 0  9999
2 25420  44.9965 100.1178 0004896 281.3247  78.7050 14.36621133372980
ORBCOMM FM21            
1 25475U 98053A   24323.91914471  .00001558  00000+0  57444-3 0  9993
2 25475  45.0074 184.6208 0000478 235.3883 124.6920 14.36440094367000
ORBCOMM FM22            
1 25476U 98053B   24323.88243284  .00001663  00000+0  60083-3 0  9997
2 25476  45.0056 181.1475 0002317 233.9215 126.1419 14.37212727367007
ORBCOMM FM23            
1 25477U 98053C   24323.87070673  .00001560  00000+0  57439-3 0  9994
2 25477  45.0074 187.1984 0001461 234.8371 125.2340 14.36524921367140
